[{"OBJECT_NAME":"STARLINK-35171","OBJECT_ID":"2025-207P","EPOCH":"2026-03-09T21:27:54.093312","MEAN_MOTION":15.05644602,"ECCENTRICITY":3.576e-5,"INCLINATION":97.6019,"RA_OF_ASC_NODE":138.8879,"ARG_OF_PERICENTER":102.0897,"MEAN_ANOMALY":258.037,"EPHEMERIS_TYPE":0,"CLASSIFICATION_TYPE":"U","NORAD_CAT_ID":65605,"ELEMENT_SET_NO":999,"REV_AT_EPOCH":2813,"BSTAR":6.560041e-5,"MEAN_MOTION_DOT":8.86e-6,"MEAN_MOTION_DDOT":0},{"OBJECT_NAME":"FENGYUN 1C DEB","OBJECT_ID":"1999-025AXR","EPOCH":"2026-03-07T20:57:39.857472","MEAN_MOTION":14.72454359,"ECCENTRICITY":0.01891694,"INCLINATION":99.3486,"RA_OF_ASC_NODE":300.9473,"ARG_OF_PERICENTER":18.7054,"MEAN_ANOMALY":342.0979,"EPHEMERIS_TYPE":0,"CLASSIFICATION_TYPE":"U","NORAD_CAT_ID":30879,"ELEMENT_SET_NO":999,"REV_AT_EPOCH":63190,"BSTAR":0.0050043655,"MEAN_MOTION_DOT":0.00042311,"MEAN_MOTION_DDOT":0}]
